STARLINK-31425          
1 59253U 24049Y   26068.26733679 -.00001731  00000+0 -53437-4 0  9997
2 59253  43.0035 145.7350 0000675 246.9018 113.1763 15.27567132112335
OTTER                   
1 62623U 25009Q   26068.72300813  .00012198  00000+0  45151-3 0  9990
2 62623  97.4065 151.3812 0003573 310.7710  49.3219 15.27809545 63722
